OBJECT_NAME,OBJECT_ID,EPOCH,MEAN_MOTION,ECCENTRICITY,INCLINATION,RA_OF_ASC_NODE,ARG_OF_PERICENTER,MEAN_ANOMALY,EPHEMERIS_TYPE,CLASSIFICATION_TYPE,NORAD_CAT_ID,ELEMENT_SET_NO,REV_AT_EPOCH,BSTAR,MEAN_MOTION_DOT,MEAN_MOTION_DDOT
COSMOS 2221,1992-080A,2022-02-24T22:10:56.127936,14.88250635,.0017939,82.5053,240.0849,73.1688,287.1496,0,U,22236,999,56109,.58319E-4,.565E-5,0
SL-16 R/B,1992-093B,2022-02-25T11:33:17.154720,14.15073217,.0003457,71.0199,215.9197,3.7099,356.4049,0,U,22285,999,50504,.14474E-3,.233E-5,0
COSMOS 2228,1992-094A,2022-02-25T10:57:49.946112,14.88487355,.002091,82.5217,196.5634,184.4000,175.7038,0,U,22286,999,57743,.84016E-4,.808E-5,0
SL-16 R/B,1993-016B,2022-02-25T11:22:21.808992,14.14996592,.000882,71.0074,68.4519,33.5459,326.6220,0,U,22566,999,49376,.19756E-4,-.9E-7,0
COSMOS 2242,1993-024A,2022-02-24T21:23:49.077600,14.88323644,.0018613,82.5203,225.4786,186.2418,173.8571,0,U,22626,999,56066,.67013E-4,.646E-5,0
SL-16 R/B,1993-059B,2022-02-24T21:03:47.384928,14.16851368,.0019294,70.9867,238.0680,292.6218,67.2865,0,U,22803,999,47075,.51558E-5,-.38E-6,0
ARIANE 40 R/B,1993-061H,2022-02-25T09:48:04.120992,14.31516049,.0010002,98.6790,119.3766,312.3866,47.6469,0,U,22830,999,48348,.30523E-4,.36E-6,0
COSMOS 2278,1994-023A,2022-02-25T07:57:24.427872,14.13856299,.0006711,71.0569,16.1412,127.5637,232.6096,0,U,23087,999,43677,.39962E-4,.29E-6,0
SL-16 R/B,1994-023B,2022-02-25T07:38:38.215104,14.14698569,.0003275,70.9983,284.2469,338.2924,21.8059,0,U,23088,999,43796,.8906E-4,.124E-5,0
SL-16 R/B,1994-074B,2022-02-25T03:10:13.419264,14.76954906,.0006043,97.9105,111.3982,329.3018,83.3953,0,U,23343,999,46979,.22716E-4,.109E-5,0
SL-16 R/B,1994-077B,2022-02-24T21:08:54.204288,14.15251223,.0004732,70.9805,212.2080,255.2121,104.8478,0,U,23405,999,40769,.46076E-4,.42E-6,0
ERS-2,1995-021A,2022-02-25T10:30:26.712288,15.25199008,.0002433,98.5179,306.4390,201.2307,158.8827,0,U,23560,999,43626,.15188E-3,.3721E-4,0
ARIANE 40+ R/B,1995-021B,2022-02-24T18:36:07.703424,14.38091111,.000642,98.6398,112.5590,213.6756,255.1368,0,U,23561,999,40729,.44462E-4,.9E-6,0
SL-16 R/B,1995-058B,2022-02-24T22:49:53.247936,14.15166412,.0013751,71.0237,33.3390,214.9960,145.0260,0,U,23705,999,35933,.11364E-4,-.25E-6,0
SL-16 R/B,1996-051B,2022-02-25T09:58:11.159616,14.12400753,.0016037,70.8192,47.2405,167.6697,192.4819,0,U,24298,999,31387,-.15223E-4,-.77E-6,0
ORBVIEW 2 (SEASTAR),1997-037A,2022-02-25T08:32:42.467712,14.33680007,.000336,98.6636,179.4735,86.7214,273.4354,0,U,24883,999,29750,.58219E-4,.117E-5,0
SL-16 R/B,1998-043G,2022-02-24T20:11:35.711520,14.25497623,.0009601,98.6640,353.2517,343.0345,17.0513,0,U,25400,999,22897,.23617E-4,.12E-6,0
SL-16 R/B,1998-045B,2022-02-24T23:15:24.703488,14.15853757,.0005322,71.0122,39.7733,121.9510,238.2131,0,U,25407,999,21875,.24464E-4,0,0
ISS (ZARYA),1998-067A,2022-02-25T18:43:54.666048,15.49939663,.0005458,51.6406,168.2939,166.0960,329.5891,0,U,25544,999,32790,.11783E-3,.6261E-4,0
CZ-4B R/B,1999-025C,2022-02-25T08:39:47.210112,14.17713942,.0036426,98.8713,97.9648,247.1187,123.0714,0,U,25732,999,17951,.14952E-4,-.14E-6,0
OKEAN-O,1999-039A,2022-02-25T02:59:50.769888,14.76837703,.0001739,98.1553,94.9350,80.0436,280.0970,0,U,25860,999,21676,.36231E-4,.201E-5,0
SL-16 R/B,1999-039B,2022-02-25T00:40:45.530400,14.78727820,.0015071,98.1907,81.1022,338.8049,72.8305,0,U,25861,999,21902,.31515E-4,.176E-5,0
DELTA 2 R/B,1999-041E,2022-02-25T10:07:35.215104,14.04804783,.0530876,51.7665,30.2830,346.8227,11.9275,0,U,25876,999,15549,.21105E-3,.1011E-4,0
HELIOS 1B,1999-064A,2022-02-24T18:33:07.848864,14.82664076,.0002034,98.3229,245.4139,123.0912,237.0496,0,U,25977,999,46658,.40211E-4,.266E-5,0
TERRA,1999-068A,2022-02-25T11:25:40.080576,14.57133603,.0001272,98.1485,130.9110,97.6407,319.0734,0,U,25994,999,18031,.46617E-4,.165E-5,0
SL-16 R/B,2000-006B,2022-02-24T21:13:46.079904,14.15481478,.0018947,71.0040,315.7791,265.4519,94.4440,0,U,26070,999,13998,.84076E-4,.117E-5,0
MTI,2000-014A,2022-02-24T20:34:15.060000,15.74791386,.0008022,97.4608,342.4872,89.7583,270.4607,0,U,26102,999,22084,.43433E-3,.64145E-3,0
TITAN 4B R/B,2000-047B,2022-02-25T10:25:38.487072,14.96467681,.0060133,67.9940,174.1589,240.5064,119.0073,0,U,26474,999,17176,.94185E-4,.983E-5,0
ENVISAT,2002-009A,2022-02-25T10:59:45.108672,14.38081145,.0001234,98.1731,42.8819,91.0326,80.9639,0,U,27386,999,4743,.46764E-4,.101E-5,0
IDEFIX & ARIANE 42P R/B,2002-021B,2022-02-25T10:44:06.578304,14.29365428,.0011595,98.4369,5.8886,202.2170,157.8512,0,U,27422,999,3155,.50866E-4,.87E-6,0
AQUA,2002-022A,2022-02-25T10:37:10.323840,14.57149142,.000087,98.2368,359.4790,104.6723,4.7011,0,U,27424,999,5391,.7947E-4,.313E-5,0
