COSMOS 2221             
1 22236U 92080A   22055.92426074  .00000565  00000+0  58319-4 0  9997
2 22236  82.5053 240.0849 0017939  73.1688 287.1496 14.88250635561099
SL-16 R/B               
1 22285U 92093B   22056.48144855  .00000233  00000+0  14474-3 0  9996
2 22285  71.0199 215.9197 0003457   3.7099 356.4049 14.15073217505045
COSMOS 2228             
1 22286U 92094A   22056.45682808  .00000808  00000+0  84016-4 0  9998
2 22286  82.5217 196.5634 0020910 184.4000 175.7038 14.88487355577430
SL-16 R/B               
1 22566U 93016B   22056.47386353 -.00000009  00000+0  19756-4 0  9995
2 22566  71.0074  68.4519 0008820  33.5459 326.6220 14.14996592493762
COSMOS 2242             
1 22626U 93024A   22055.89154025  .00000646  00000+0  67013-4 0  9990
2 22626  82.5203 225.4786 0018613 186.2418 173.8571 14.88323644560661
SL-16 R/B               
1 22803U 93059B   22055.87763177 -.00000038  00000+0  51558-5 0  9991
2 22803  70.9867 238.0680 0019294 292.6218  67.2865 14.16851368470756
ARIANE 40 R/B           
1 22830U 93061H   22056.40838103  .00000036  00000+0  30523-4 0  9991
2 22830  98.6790 119.3766 0010002 312.3866  47.6469 14.31516049483488
COSMOS 2278             
1 23087U 94023A   22056.33153273  .00000029  00000+0  39962-4 0  9993
2 23087  71.0569  16.1412 0006711 127.5637 232.6096 14.13856299436774
SL-16 R/B               
1 23088U 94023B   22056.31849786  .00000124  00000+0  89060-4 0  9993
2 23088  70.9983 284.2469 0003275 338.2924  21.8059 14.14698569437969
SL-16 R/B               
1 23343U 94074B   22056.13209976  .00000109  00000+0  22716-4 0  9992
2 23343  97.9105 111.3982 0006043 329.3018  83.3953 14.76954906469799
SL-16 R/B               
1 23405U 94077B   22055.88118292  .00000042  00000+0  46076-4 0  9996
2 23405  70.9805 212.2080 0004732 255.2121 104.8478 14.15251223407698
ERS-2                   
1 23560U 95021A   22056.43780917  .00003721  00000+0  15188-3 0  9995
2 23560  98.5179 306.4390 0002433 201.2307 158.8827 15.25199008436269
ARIANE 40+ R/B          
1 23561U 95021B   22055.77508916  .00000090  00000+0  44462-4 0  9993
2 23561  98.6398 112.5590 0006420 213.6756 255.1368 14.38091111407298
SL-16 R/B               
1 23705U 95058B   22055.95131074 -.00000025  00000+0  11364-4 0  9994
2 23705  71.0237  33.3390 0013751 214.9960 145.0260 14.15166412359330
SL-16 R/B               
1 24298U 96051B   22056.41540694 -.00000077  00000+0 -15223-4 0  9996
2 24298  70.8192  47.2405 0016037 167.6697 192.4819 14.12400753313878
ORBVIEW 2 (SEASTAR)     
1 24883U 97037A   22056.35604708  .00000117  00000+0  58219-4 0  9996
2 24883  98.6636 179.4735 0003360  86.7214 273.4354 14.33680007297504
SL-16 R/B               
1 25400U 98043G   22055.84138555  .00000012  00000+0  23617-4 0  9993
2 25400  98.6640 353.2517 0009601 343.0345  17.0513 14.25497623228978
SL-16 R/B               
1 25407U 98045B   22055.96903592  .00000000  00000+0  24464-4 0  9994
2 25407  71.0122  39.7733 0005322 121.9510 238.2131 14.15853757218755
ISS (ZARYA)             
1 25544U 98067A   22056.78049382  .00006261  00000+0  11783-3 0  9993
2 25544  51.6406 168.2939 0005458 166.0960 329.5891 15.49939663327905
CZ-4B R/B               
1 25732U 99025C   22056.36096308 -.00000014  00000+0  14952-4 0  9994
2 25732  98.8713  97.9648 0036426 247.1187 123.0714 14.17713942179511
OKEAN-O                 
1 25860U 99039A   22056.12489317  .00000201  00000+0  36231-4 0  9992
2 25860  98.1553  94.9350 0001739  80.0436 280.0970 14.76837703216769
SL-16 R/B               
1 25861U 99039B   22056.02830475  .00000176  00000+0  31515-4 0  9998
2 25861  98.1907  81.1022 0015071 338.8049  72.8305 14.78727820219026
DELTA 2 R/B             
1 25876U 99041E   22056.42193536  .00001011  00000+0  21105-3 0  9993
2 25876  51.7665  30.2830 0530876 346.8227  11.9275 14.04804783155495
HELIOS 1B               
1 25977U 99064A   22055.77300751  .00000266  00000+0  40211-4 0  9997
2 25977  98.3229 245.4139 0002034 123.0912 237.0496 14.82664076466584
TERRA                   
1 25994U 99068A   22056.47615834  .00000165  00000+0  46617-4 0  9993
2 25994  98.1485 130.9110 0001272  97.6407 319.0734 14.57133603180319
SL-16 R/B               
1 26070U 00006B   22055.88456111  .00000117  00000+0  84076-4 0  9996
2 26070  71.0040 315.7791 0018947 265.4519  94.4440 14.15481478139981
MTI                     
1 26102U 00014A   22055.85711875  .00064145  00000+0  43433-3 0  9991
2 26102  97.4608 342.4872 0008022  89.7583 270.4607 15.74791386220842
TITAN 4B R/B            
1 26474U 00047B   22056.43447323  .00000983  00000+0  94185-4 0  9999
2 26474  67.9940 174.1589 0060133 240.5064 119.0073 14.96467681171764
ENVISAT                 
1 27386U 02009A   22056.45816098  .00000101  00000+0  46764-4 0  9995
2 27386  98.1731  42.8819 0001234  91.0326  80.9639 14.38081145 47438
IDEFIX & ARIANE 42P R/B 
1 27422U 02021B   22056.44729836  .00000087  00000+0  50866-4 0  9993
2 27422  98.4369   5.8886 0011595 202.2170 157.8512 14.29365428 31555
AQUA                    
1 27424U 02022A   22056.44248060  .00000313  00000+0  79470-4 0  9995
2 27424  98.2368 359.4790 0000870 104.6723   4.7011 14.57149142 53911
